Supercharger,Street Address,City,State,City State,Zip,Country,Stalls,GPS,Elev.(m),Status,Open Date ?,Tesla,Discuss
"Aberdeen, MD","Maryland House Sevice Plaza, I-95",Aberdeen,MD,Aberdeen_MD,21001,USA,8,"39.498017, -76.231196",76,Permit,,SC,thread
"Aberdeen, WA",416 Wishkah Street,Aberdeen,WA,Aberdeen_WA,98520,USA,8,"46.976679, -123.813485",132,Open,12/22/2016,SC,thread
"Albany, NY",131 Colonie Center,Albany,NY,Albany_NY,12205,USA,6,"42.710356, -73.819109",88,Open,4/30/2014,SC,thread
"Albert Lea, MN",811 East Plaza St,Albert Lea,MN,Albert Lea_MN,56007,USA,4,"43.68606, -93.357721",383,Open,1/15/2014,SC,thread
Albuquerque NM,2600 Menaul Blvd NE,Albuquerque,NM,Albuquerque_NM,87107,USA,6,"35.108962, -106.612794","1,558",Open,9/4/2015,SC,thread
"Alexandria, LA",701 4th St.,Alexandria,LA,Alexandria_LA,71301,USA,8,"31.312424, -92.446436",23,Open,6/7/2016,SC,thread
"Allentown, PA","Tilghman Square, 4680 Broadway",Allentown,PA,Allentown_PA,18104,USA,8,"40.588102, -75.559904",125,Open,1/21/2016,SC,thread
"Amarillo, TX",8271 W Amarillo Blvd,Amarillo,TX,Amarillo_TX,79124,USA,8,"35.189035, -101.931478","1,134",Open,11/5/2015,SC,thread
"Angola, IN",3855 Indiana Rte 127,Angola,IN,Angola_IN,46703,USA,6,"41.699048, -85.000326",329,Open,12/9/2013,SC,thread
"Ann Arbor, MI",3145 Saline Road,Ann Arbor,MI,Ann Arbor_MI,48108,USA,8,"42.240687, -83.766265",282,Open,8/20/2015,SC,thread
"Ardmore, OK",322 Holiday Dr,Ardmore,OK,Ardmore_OK,73401,USA,6,"34.179106, -97.165632",259,Open,3/13/2015,SC,thread
"Arlington, TX",1200 Ballpark Way,Arlington,TX,Arlington_TX,76011,USA,10,"32.754659, -97.082823",164,Open,4/22/2017,SC,thread
"Asheville, NC",800 Brevard Road,Asheville,NC,Asheville_NC,,USA,8,"35.531391, -82.604487",662,Open,12/16/2015,SC,thread
"Atascadero, CA",6950 El Camino Real,Atascadero,CA,Atascadero_CA,93422,USA,8,"35.48656, -120.66633",262,Open,7/3/2013,SC,forum
"Athens, AL",1325 US-72,Athens,AL,Athens_AL,35611,USA,8,"34.785443, -86.942964",207,Open,5/31/2017,SC,thread
"Atlanta, GA",1380 Atlantic Dr,Atlanta,GA,Atlanta_GA,30363,USA,10,"33.793808, -84.397203",268,Open,12/18/2014,SC,thread
"Auburn, AL",1627 Opelika Rd,Auburn,AL,Auburn_AL,,USA,6,"32.625185, -85.446314",222,Open,12/23/2014,SC,thread
"Auburn, MA",385 Southbridge St,Auburn,MA,Auburn_MA,1501,USA,8,"42.203608, -71.832516",156,Open,12/29/2014,SC,thread
"Augusta, GA",1069 Stevens Creek Rd,Augusta,GA,Augusta_GA,30907,USA,8,"33.515004, -82.044443",89,Open,6/12/2016,SC,thread
"Augusta, ME",13 Stephen King Dr.,Augusta,ME,Augusta_ME,4330,USA,8,"44.34787, -69.786088",96,Open,12/4/2015,SC,thread
"Austin, TX",6406 N Interstate 35 Frontage Rd,Austin,TX,Austin_TX,78752,USA,8,"30.326125, -97.707112",220,Construction,,SC,thread
"Baker City, OR",1 Sunridge Ln,Baker City,OR,Baker City_OR,97814,USA,8,"44.782849, -117.812422","1,044",Open,6/25/2015,SC,thread
"Bakersfield, CA","29541 Stockdale Hy,",Bakersfield,CA,Bakersfield_CA,93314,USA,10,"35.354643, -119.331607",93,Open,9/29/2016,SC,thread
"Bandon, OR",44 Michigan Ave NE,Bandon,OR,Bandon_OR,97411,USA,8,"43.120781, -124.39905",22,Open,11/4/2016,SC,thread
"Barrie, ON",100 Mapleview Dr,Barrie,ON,Barrie_ON,L4N 9H6,Canada,8,"44.341123, -79.678975",293,Open,1/29/2015,SC,thread
"Barstow, CA",2812 Lenwood Rd,Barstow,CA,Barstow_CA,92311,USA,16,"34.849129, -117.085446",725,Open,11/19/2012,SC,thread
"Baton Rouge, LA",3535 Perkins Rd,Baton Rouge,LA,Baton Rouge_LA,70808,USA,6,"30.423892, -91.154637",10,Open,1/22/2015,SC,thread
"Baxter, MN",6967 Lake Forest Rd,Baxter,MN,Baxter_MN,56425,USA,8,"46.378868, -94.256413",369,Open,10/21/2015,SC,thread
"Bay City, MI",2980 Wilder Road,Bay City,MI,Bay City_MI,48706,USA,8,"43.622754, -83.935306",181,Open,9/27/2016,SC,thread
"Beatty, NV",700 US-95,Beatty,NV,Beatty_NV,89003,USA,8,"36.913718, -116.754371","1,011",Open,2/9/2016,SC,thread
"Beaver, UT",Littlefield Interchange,Beaver,UT,Beaver_UT,84713,USA,4,"38.249149, -112.652524","1,790",Open,4/14/2014,SC,thread
"Bend, OR",61535 S Highway 97,Bend,OR,Bend_OR,97702,USA,8,"44.03563, -121.308473","1,142",Open,6/17/2016,SC,thread
"Berlin, VT",213 Payne Turnpike,Berlin,VT,Berlin_VT,5602,USA,8,"44.212532, -72.576462",299,Open,10/3/2016,SC,thread
"Big Timber, MT",228 Big Timber Loop Rd,Big Timber,MT,Big Timber_MT,59011,USA,4,"45.836945, -109.944577","1,245",Open,10/22/2014,SC,thread
"Billings, MT",1801 Majestic LN,Billings,MT,Billings_MT,59102,USA,4,"45.733716, -108.604573",978,Open,7/23/2014,SC,thread
"Binghamton, NY",1062 Front St,Binghamton,NY,Binghamton_NY,13905,USA,8,"42.145553, -75.901755",262,Open,11/1/2015,SC,thread
"Birmingham, AL",2221 Richard Arrington Jr Blvd N,Birmingham,AL,Birmingham_AL,35203,USA,8,"33.525917, -86.806875",182,Open,11/16/2016,SC,thread
"Blanding, UT",12 N Grayson Pkwy,Blanding,UT,Blanding_UT,84511,USA,4,"37.625553, -109.473842","1,849",Open,1/13/2014,SC,thread
"Bloomsburg, PA",11 Ricky Ave,Bloomsburg,PA,Bloomsburg_PA,17815,USA,8,"41.016143, -76.492616",197,Open,10/14/2016,SC,thread
"Boise, ID",1426 S Entertainment Ave,Boise,ID,Boise_ID,83709,USA,8,"43.591886, -116.279015",838,Open,8/7/2015,SC,thread
"Bolingbrook, IL",755 E Boughton Rd,Bolingbrook,IL,Bolingbrook_IL,,USA,8,"41.722189, -88.037278",226,Open,5/31/2017,SC,thread
"Bowling Green, KY",1676 Westpark Dr,Bowling Green,KY,Bowling Green_KY,42104,USA,8,"36.955196, -86.438854",162,Open,6/24/2016,SC,thread
"Bozeman, MT",2023 Commerce Way,Bozeman,MT,Bozeman_MT,59715,USA,4,"45.700078, -111.062569","1,442",Open,10/22/2014,SC,thread
"Brandon, FL",2400 W Brandon Blvd,Brandon,FL,Brandon_FL,33511,USA,8,"27.940831, -82.323648",12,Open,9/24/2014,SC,thread
"Brattleboro, VT",499 Canal St,Brattleboro,VT,Brattleboro_VT,5301,USA,8,"42.838443, -72.565798",129,Open,1/16/2015,SC,thread
"Breezewood, PA",16417 Lincoln Hwy,Breezewood,PA,Breezewood_PA,15533,USA,8,"39.999705, -78.238536",395,Construction,,SC,thread
"Brewer, ME",5 Walton Dr,Brewer,ME,Brewer_ME,4412,USA,8,"44.775909, -68.73432",43,Open,9/2/2016,SC,thread
"Bristol, TN",428 Pinnacle Pkwy,Bristol,TN,Bristol_TN,37620,USA,8,"36.591697, -82.261339",549,Construction,,SC,thread
"Brush, CO",1156 Colorado Avenue,Brush,CO,Brush_CO,80723,USA,8,"40.270895, -103.62223","1,289",Open,12/31/2016,SC,thread
"Buckeye, AZ",416 S Watson RD,Buckeye,AZ,Buckeye_AZ,85326,USA,8,"33.443011, -112.556876",338,Open,3/20/2014,SC,thread
"Buellton, CA",555 McMurray RD,Buellton,CA,Buellton_CA,93427,USA,8,"34.61456, -120.188387",114,Open,7/13/2013,SC,forum
"Buena Park, CA",6692 Auto Center Dr,Buena Park,CA,Buena Park_CA,90621,USA,8,"33.863379, -117.99103",25,Open,10/20/2016,SC,thread
"Buffalo, NY",4455 Transit Road,Buffalo,NY,Buffalo_NY,14221,USA,8,"42.968673, -78.696128",213,Open,6/11/2015,SC,thread
"Burbank, CA",811 S San Fernando Blvd,Burbank,CA,Burbank_CA,91502,USA,6,"34.174712, -118.300826",168,Open,12/15/2015,SC,thread
"Burlington, NC",1080 Piper Ln,Burlington,NC,Burlington_NC,27215,USA,8,"36.07079, -79.511211",197,Open,10/16/2013,SC,thread
"Burlington, WA",9384 Old Highway 99,Burlington,WA,Burlington_WA,98233,USA,8,"48.509772, -122.338625",7,Open,7/13/2013,SC,forum
"Butte, MT",2900 Harrison Ave,Butte,MT,Butte_MT,59701,USA,6,"45.981226, -112.507161","1,666",Open,12/4/2014,SC,thread
"Buttonwillow, CA",20673 Tracy Ave,Buttonwillow,CA,Buttonwillow_CA,93206,USA,10,"35.400105, -119.397796",90,Open,1/29/2016,SC,thread
"Cabazon, CA",48400 Seminole Dr,Cabazon,CA,Cabazon_CA,92230,USA,10,"33.93129, -116.820041",620,Open,12/17/2014,SC,thread
"Cadillac, MI",8605 34 Rd,Cadillac,MI,Cadillac_MI,49601,USA,8,"44.282551, -85.403096",393,Open,12/23/2015,SC,thread
"Calgary, AB","CrossIron Mills Outlets Mall, 261055 Crossiron Blvd","Rocky View County,",AB,"Rocky View County,_AB",T4A 0G3,Canada,8,"51.20412, -113.989686","1,085",Open,3/15/2017,SC,thread
"Cambridge, OH",2101 Southgate Pkwy,Cambridge,OH,Cambridge_OH,43725,USA,8,"40.00357, -81.575043",242,Construction,,SC,thread
"Canmore, AB",1719 Bow Valley Trail,Canmore,AB,Canmore_AB,T1W 1L7,Canada,4,"51.100208, -115.359179","1,320",Open,3/11/2015,SC,thread
"Casa Grande, AZ",2453 E Florence,Casa Grande,AZ,Casa Grande_AZ,85194,USA,6,"32.87888, -111.681742",435,Open,9/30/2014,SC,thread
"Catoosa, OK",777 W. Cherokee St.,Catoosa,OK,Catoosa_OK,74015,USA,8,"36.167631, -95.766044",209,Open,7/16/2016,SC,thread
"Centralia, WA",1200 Lum Rd,Centralia,WA,Centralia_WA,98531,USA,10,"46.729732, -122.977454",56,Open,7/17/2013,SC,forum
"Champaign, IL",2401 N Prospect Ave,Champaign,IL,Champaign_IL,61822,USA,8,"40.146209, -88.259884",228,Open,3/23/2016,SC,thread
"Channelview, TX",16311 East Fwy,Channelview,TX,Channelview_TX,77530,USA,8,"29.784665, -95.110612",7,Open,10/10/2016,SC,forum
"Charleston, WV",100 Kanawha Blvd East,Charleston,WV,Charleston_WV,25301,USA,8,"38.354712, -81.642845",181,Construction,,SC,thread
"Charlotte, NC",2720 Mallard Creek Church RD,Charlotte,NC,Charlotte_NC,28262,USA,8,"35.341213, -80.766023",232,Open,2/25/2015,SC,thread
"Charlottesville, VA",2100 Bond St.,Charlottesville,VA,Charlottesville_VA,22901,USA,8,"38.067051, -78.492702",149,Permit,,SC,thread
"Chattanooga, TN",1001 Airport Rd,Chattanooga,TN,Chattanooga_TN,37421,USA,6,"35.038644, -85.19593",204,Open,9/4/2014,SC,thread
"Cheyenne, WY",1400 Dell Range Blvd,Cheyenne,WY,Cheyenne_WY,82009,USA,4,"41.161085, -104.804955","1,859",Open,1/20/2014,SC,thread
"Childress, TX",1300 Avenue F NW,Childress,TX,Childress_TX,79201,USA,9,"34.432426, -100.218676",580,Open,10/19/2016,SC,forum
"Cincinnati, OH","9111 Blue Ash, Rd.",Cincinnati,OH,Cincinnati_OH,45242,USA,8,"39.224429, -84.383415",258,Open,6/5/2015,SC,thread
"Cisco, TX",16851 Interstate Highway 20,Cisco,TX,Cisco_TX,76437,USA,8,"32.374263, -99.007197",513,Open,8/19/2016,SC,thread
"Clearwater, MN",950 MN-24,Clearwater,MN,Clearwater_MN,55320,USA,8,"45.411899, -94.054852",304,Open,12/22/2016,SC,thread
"Cleveland, Tesla Service Center",5180 Mayfield Road,Lyndhurst,OH,Lyndhurst_OH,44124,USA,1,"41.519027, -81.493345",314,Open,5/9/2015,SC,thread
"Coeur d'Alene, ID",3458 N Fruitland Ln,Coeur d'Alene,ID,Coeur d'Alene_ID,83815,USA,6,"47.708479, -116.794283",685,Open,3/4/2015,SC,thread
"Colorado Springs, CO",215 North Cascade Ave,Colorado Springs,CO,Colorado Springs_CO,80903,USA,8,"38.837573, -104.824907","1,835",Open,12/29/2015,SC,thread
"Columbia, MO",915 Port Way,Columbia,MO,Columbia_MO,65201,USA,8,"38.958728, -92.252464",254,Open,9/11/2015,SC,thread
"Columbia, SC",8910 Farrow Rd,Columbia,SC,Columbia_SC,29203,USA,8,"34.106319, -80.950723",95,Open,11/15/2016,SC,thread
"Columbus, TX",2535 Texas 71,Columbus,TX,Columbus_TX,78934,USA,6,"29.690062, -96.537725",57,Open,10/7/2013,SC,forum
"Comber, ON",7018 Industrial Dr,Comber,ON,Comber_ON,N0P 1J0,Canada,8,"42.238789, -82.550873",182,Open,3/25/2015,SC,thread
"Coralville, IA",1914 8th St,Coralville,IA,Coralville_IA,,USA,8,"41.680372, -91.591467",205,Open,9/29/2016,SC,thread
"Cordes Lakes, AZ",14925 Cordes Lakes Rd,Mayer,AZ,Mayer_AZ,86333,USA,8,"34.327131, -112.118432","1,150",Open,10/14/2014,SC,thread
"Corning, CA",950 Hwy 99,Corning,CA,Corning_CA,96021,USA,6,"39.926454, -122.198393",87,Open,10/18/2013,SC,forum
"Cornwall, ON",805 Brookdale Ave,Cornwall,ON,Cornwall_ON,K6J 4P3,Canada,6,"45.023665, -74.747845",56,Open,8/28/2014,SC,thread
"Corsicana, TX",2035 Interstate 45 Frontage Rd,Corsicana,TX,Corsicana_TX,75109,USA,6,"32.068577, -96.448229",132,Open,11/15/2013,SC,forum
"Council Bluffs, IA",3815 Metro Dr,Council Bluffs,IA,Council Bluffs_IA,51501,USA,8,"41.220005, -95.836123",301,Open,3/11/2015,SC,thread
"Country Club Hills, IL",4201 167th St,Country Club Hills,IL,Country Club Hills_IL,60478,USA,8,"41.584927, -87.721062",205,Open,11/8/2014,SC,thread
"Cranberry, PA",1308 Freedom Rd,Cranberry Township,PA,Cranberry Township_PA,16066,USA,6,"40.683982, -80.10839",312,Open,4/4/2014,SC,thread
"Cranbury, NJ",Molly Pitcher Service Area,Cranbury,NJ,Cranbury_NJ,8512,USA,4,"40.321021, -74.488254",36,Open,7/9/2015,SC,thread
"Crescent City, CA",1000 Front St,Crescent City,CA,Crescent City_CA,95531,USA,6,"41.752393, -124.1944",4,Open,9/8/2016,SC,thread
"Culver City, CA",6000 Hannum Ave,Culver City,CA,Culver City_CA,90230,USA,16,"33.986779, -118.390213",13,Open,12/18/2014,SC,thread
"Dallas, TX",8021 Walnut Hill Lane,Dallas,TX,Dallas_TX,75231,USA,8,"32.880799, -96.768235",170,Permit,,SC,thread
"Darien, CT (north)",Connecticut Welcome Center,Darien,CT,Darien_CT,6820,USA,4,"41.080599, -73.461905",13,Open,6/19/2013,SC,forum
"Darien, CT (south)",I-95 South after exit 10,Darien,CT,Darien_CT,6820,USA,4,"41.068167, -73.504659",14,Open,6/19/2013,SC,forum
"Davenport, IA",North Ridge Shopping Center 4064 E 53rd St,Davenport,IA,Davenport_IA,,USA,8,"41.575888, -90.513526",219,Open,10/21/2016,SC,thread
"Dayton, OH",9200 N Main St,Dayton,OH,Dayton_OH,45445,USA,8,"39.85675, -84.276458",258,Open,11/11/2014,SC,thread
"Decatur, GA",1580 Church St,Decatur,GA,Decatur_GA,30033,USA,4,"33.793217, -84.285379",310,Open,11/20/2014,SC,thread
"Dedham, MA",840 Providence Highway,Dedham,MA,Dedham_MA,,USA,8,"42.236034, -71.178634",29,Open,8/8/2015,SC,thread
"DeFuniak Springs, FL",10th St and Baldwin Ave,DeFuniak Springs,FL,DeFuniak Springs_FL,32435,USA,5,"30.720702, -86.116677",76,Open,1/9/2015,SC,thread
"Denton, TX",2710 W University Dr,Denton,TX,Denton_TX,76201,USA,6,"33.231403, -97.166419",212,Open,11/4/2015,SC,thread
"Denver, CO",4310 Airport Way,Denver,CO,Denver_CO,80239,USA,6,"39.775259, -104.794674","1,641",Open,11/8/2014,SC,thread
"Detroit Lake, OR",210 D Street,Detroit,OR,Detroit_OR,97342,USA,6,"44.737025, -122.152108",492,Open,12/23/2013,SC,forum
"Dows, IA",904 Cardinal Avenue,Dows,IA,Dows_IA,50071,USA,8,"42.673838, -93.462294",360,Permit,,SC,thread
"Drummondville, QC",Les Promenades Drummondville 755 boul. Rene-Levesque,Drummondville,QC,Drummondville_QC,J2C 6Y7,Canada,8,"45.899084, -72.51942",84,Open,4/8/2015,SC,thread
"Dublin, CA",6701 Amador Plaza Rd,Dublin,CA,Dublin_CA,94568,USA,14,"37.702359, -121.92593",103,Open,10/17/2015,SC,thread
"Duluth, MN",200 W 1st St,Duluth,MN,Duluth_MN,55802,USA,4,"46.784467, -92.10232",200,Open,7/17/2015,SC,thread
"East Brunswick, NJ","Joyce Kilmer Service Area, New Jersey Turnpike",East Brunswick,NJ,East Brunswick_NJ,8816,USA,4,"40.41701, -74.444085",37,Open,6/19/2015,SC,thread
"East Greenwich, RI",1000 Division St,East Greenwich,RI,East Greenwich_RI,2818,USA,8,"41.660517, -71.497242",73,Open,1/6/2014,SC,forum
"Eau Claire, WI",4601 Keystone Crossing,Eau Claire,WI,Eau Claire_WI,54701,USA,6,"44.77083, -91.43711",293,Open,1/30/2014,SC,thread
"Edison, NJ",199 Lafayette Ave,Edison,NJ,Edison_NJ,8837,USA,8,"40.544814, -74.333248",30,Open,8/22/2014,SC,thread
"Effingham, IL",1200 North Keller Dr,Effingham,IL,Effingham_IL,62401,USA,6,"39.137048, -88.563736",184,Open,3/28/2015,SC,thread
"Egg Harbor Township, NJ",3121 Fire Rd,Egg Harbor Township,NJ,Egg Harbor Township_NJ,8234,USA,8,"39.393663, -74.562619",9,Open,6/23/2016,SC,thread
"El Centro, CA",3451 S Dogwood Rd,El Centro,CA,El Centro_CA,92243,USA,8,"32.763723, -115.531517",-8,Open,12/28/2014,SC,thread
"El Paso, TX",6401 Desert BLVD,El Paso,TX,El Paso_TX,79932,USA,8,"31.8839, -106.58379","1,180",Open,4/22/2017,SC,thread
"Elko, NV",2755 Mountain City Hwy,Elko,NV,Elko_NV,89801,USA,6,"40.836301, -115.790859","1,574",Open,2/3/2015,SC,thread
"Ellensburg, WA",1620 Canyon Rd,Ellensburg,WA,Ellensburg_WA,98926,USA,5,"46.976918, -120.54162",454,Open,12/23/2013,SC,thread
"Erie, PA",2225 Downs Dr,Erie,PA,Erie_PA,16509,USA,8,"42.049602, -80.086345",358,Open,6/3/2016,SC,thread
"Erwin, NY",125 Victory Highway,Painted Post,NY,Painted Post_NY,14870,USA,10,"42.170919, -77.107728",288,Permit,,SC,thread
"Eureka, CA","Bayshore Mall, 3300 Broadway St",Eureka,CA,Eureka_CA,95501,USA,8,"40.778885, -124.188383",6,Open,8/17/2016,SC,thread
"Evanston, WY",101 Wasatch Rd,Evanston,WY,Evanston_WY,82930,USA,8,"41.263404, -110.98558","2,080",Permit,,SC,thread
"Farmington, NM",4200 Sierra Vista Dr,Farmington,NM,Farmington_NM,87402,USA,4,"36.766371, -108.144047","1,673",Open,1/10/2014,SC,thread
"Fish Camp, CA",1122 California 41,Fish Camp,CA,Fish Camp_CA,93623,USA,8,"37.473828, -119.635893","1,557",Open,12/15/2016,SC,thread
"Flagstaff, AZ",2650 S Beulah Blvd,Flagstaff,AZ,Flagstaff_AZ,86001,USA,4,"35.174272, -111.66328","2,106",Open,1/10/2014,SC,thread
"Flatonia, TX",1415 FM 609 at I-10,Flatonia,TX,Flatonia_TX,78941,USA,8,"29.697904, -97.099993",128,Open,5/14/2017,SC,thread
"Florida City, FL",33505 S Dixie Hwy,Florida City,FL,Florida City_FL,33034,USA,8,"25.456825, -80.474341",1,Construction,,SC,thread
"Folsom-Palladio, CA",220 Palladio Pkwy,Folsom,CA,Folsom_CA,95630,USA,10,"38.647199, -121.118344",116,Open,8/13/2016,SC,thread
"Folsom, CA",13000 Folsom Blvd,Folsom,CA,Folsom_CA,95630,USA,4,"38.64258, -121.18806",63,Open,11/19/2013,SC,forum
"Fort Drum, FL",184 Florida's Turnpike,Okeechobee,FL,Okeechobee_FL,34972,USA,6,"27.601444, -80.822187",16,Open,11/26/2014,SC,thread
"Fort MacLeod, AB",2323 7 Ave,"Fort MacLeod, Canada",AB,"Fort MacLeod, Canada_AB",T0L 0Z0,Canada,8,"49.724991, -113.397336",946,Open,11/24/2016,SC,thread
"Fort Myers, FL",9903 Gulf Coast Main Street,Fort Myers,FL,Fort Myers_FL,33913,USA,8,"26.48564, -81.787136",6,Open,7/25/2013,SC,forum
"Fort Stockton, TX",2571 I-10 Service Rd,Fort Stockton,TX,Fort Stockton_TX,79735,USA,8,"30.90069, -102.905559",920,Permit,,SC,thread
"Fountain Valley, CA",17900 Newhope St,Fountain Valley,CA,Fountain Valley_CA,92708,USA,8,"33.70278, -117.934127",11,Open,8/28/2015,SC,thread
"Fremont, CA",45500 Fremont Blvd,Fremont,CA,Fremont_CA,94538,USA,12,"37.493447, -121.945654",6,Open,8/16/2013,SC,thread
"Fresno, CA",6709 North Riverside Dr,Fresno,CA,Fresno_CA,93704,USA,10,"36.835455, -119.91058",91,Open,1/29/2016,SC,thread
"Gallup, NM",111 Twin Buttes Rd,Gallup,NM,Gallup_NM,87301,USA,4,"35.505278, -108.828094","1,970",Open,1/7/2014,SC,thread
"Gardnerville, NV","Topaz Lodge, 1979 US-395",Gardnerville,NV,Gardnerville_NV,89410,USA,6,"38.696426, -119.548534","1,579",Open,10/22/2015,SC,thread
"Gila Bend, AZ",826 W Pima St,Gila Bend,AZ,Gila Bend_AZ,85337,USA,8,"32.943969, -112.733506",221,Open,5/17/2014,SC,thread
"Gillette, WY","Hampton Inn, 211 Decker Ct",Gillette,WY,Gillette_WY,82718,USA,4,"44.29301, -105.526628","1,400",Open,9/24/2015,SC,thread
"Gilroy, CA",681 Leavesley Road,Gilroy,CA,Gilroy_CA,95020,USA,16,"37.02493, -121.56542",63,Open,11/19/2012,SC,forum
"Glen Allen, VA",9860 Brook Rd,Glen Allen,VA,Glen Allen_VA,23059,USA,8,"37.669832, -77.461419",49,Open,10/24/2013,SC,forum
"Glenwood Springs, CO",125 Wulfsohn Rd,Glenwood Springs,CO,Glenwood Springs_CO,81601,USA,6,"39.55268, -107.340168","1,762",Open,9/17/2013,SC,thread
"Golden, BC",1200 - 12th Street,Golden,BC,Golden_BC,V0A 1H0,Canada,4,"51.31325, -116.974152",802,Open,2/4/2015,SC,thread
"Goodland, KS",2631 Enterprise Rd,Goodland,KS,Goodland_KS,67735,USA,6,"39.326253, -101.725171","1,129",Open,6/13/2014,SC,thread
"Gothenburg, NE",318 Platte River Rd,Gothenburg,NE,Gothenburg_NE,69138,USA,8,"40.917317, -100.169913",780,Open,12/2/2016,SC,thread
"Grand Ave (SC), Chicago, IL",1053 W Grand Ave,Chicago,IL,Chicago_IL,60642,USA,2,"41.890732, -87.654125",181,Open,9/9/2014,SC,thread
"Grand Island, NE",3335 W Wood River Rd,Grand Island,NE,Grand Island_NE,68803,USA,8,"40.829973, -98.379822",574,Open,1/6/2017,SC,thread
"Grand Junction, CO",2420 U.S. 6,Grand Junction,CO,Grand Junction_CO,81505,USA,6,"39.090758, -108.604325","1,386",Open,1/10/2014,SC,thread
"Grand Rapids, MI",5531 28th St SE,Grand Rapids,MI,Grand Rapids_MI,49512,USA,8,"42.915523, -85.533929",227,Open,6/25/2015,SC,thread
"Grants Pass, OR",1900 NW 6th St.,Grants Pass,OR,Grants Pass_OR,97526,USA,4,"42.460883, -123.324124",335,Open,10/22/2013,SC,forum
"Green Bay, WI","Shawano Ave, East of I-41",Green Bay,WI,Green Bay_WI,,USA,8,"44.535432, -88.077779",188,Permit,,SC,thread
"Green River, UT",1765 East Main St,Green River,UT,Green River_UT,84525,USA,4,"38.993577, -110.140513","1,240",Open,3/17/2014,SC,thread
"Greenville, AL",219 Interstate Dr,Greenville,AL,Greenville_AL,36037,USA,6,"31.855989, -86.635765",145,Open,12/6/2014,SC,thread
"Greenville, SC",108 Carolina Point Pkwy,Greenville,SC,Greenville_SC,29607,USA,8,"34.825895, -82.306973",304,Open,11/9/2015,SC,thread
"Greenwich, CT (north)",3000 Merritt Parkway,Greenwich,CT,Greenwich_CT,6830,USA,4,"41.041538, -73.671661",82,Open,2/12/2014,SC,thread
"Greenwich, CT (south)",2000 Merritt Parkway,Greenwich,CT,Greenwich_CT,6830,USA,4,"41.040555, -73.673445",81,Open,2/12/2014,SC,thread
"Grimsby, ON",4 Windward Dr,Grimsby,ON,Grimsby_ON,L3M 4E8,Canada,8,"43.209814, -79.601404",82,Open,5/13/2016,SC,thread
"Grove City, OH",2221 Stringtown Rd,Grove City,OH,Grove City_OH,43123,USA,8,"39.877253, -83.063448",243,Open,1/16/2015,SC,thread
"Groveland, CA",11875 Ponderosa Ln,Groveland,CA,Groveland_CA,95321,USA,7,"37.838679, -120.23199",865,Open,12/16/2016,SC,thread
"Gustine, CA",12411 California Highway 33,Gustine,CA,Gustine_CA,95322,USA,12,"37.109305, -121.017565",47,Open,11/16/2016,SC,thread
"Hagerstown, MD",495 Premium Outlets Blvd,Hagerstown,MD,Hagerstown_MD,21740,USA,6,"39.605859, -77.733324",164,Open,1/23/2014,SC,thread
"Hamilton Marketplace, NJ",425 Marketplace Blvd,Hamilton Township,NJ,Hamilton Township_NJ,8691,USA,6,"40.195539, -74.641375",21,Open,4/22/2014,SC,thread
"Harris Ranch, CA",24505 W. Dorris Ave,Coalinga,CA,Coalinga_CA,93210,USA,20,"36.25415, -120.237896",139,Open,11/19/2012,SC,thread
"Harrisburg, PA",3915 Union Deposit Rd,Harrisburg,PA,Harrisburg_PA,17109,USA,8,"40.277134, -76.823255",145,Open,5/9/2016,SC,thread
"Hawthorne, CA",1 Rocket Rd,Hawthorne,CA,Hawthorne_CA,90250,USA,12,"33.921068, -118.330054",18,Open,11/19/2012,SC,thread
"Hawthorne, NV",705 Hwy 362,Hawthorne,NV,Hawthorne_NV,89415,USA,8,"38.533939, -118.62308","1,301",Open,5/3/2016,SC,thread
"Hays, KS",4101 Vine St,Hays,KS,Hays_KS,67601,USA,6,"38.900543, -99.319142",626,Open,6/12/2014,SC,thread
"Highland Park (SC), IL",1200 Old Skokie Road,Highland Park,IL,Highland Park_IL,60035,USA,4,"42.17434, -87.816626",195,Open,12/20/2013,SC,thread
"Hinckley, MN",404 Fire Monument Rd,Hinckley,MN,Hinckley_MN,55037,USA,8,"46.009592, -92.93155",313,Open,10/21/2015,SC,thread
"Holbrook, AZ",2096 Navajo Blvd,Holbrook,AZ,Holbrook_AZ,86025,USA,4,"34.922962, -110.145558","1,596",Open,1/15/2014,SC,thread
"Hooksett (north), NH",Interstate 93 N,Hooksett,NH,Hooksett_NH,3106,USA,6,"43.110063, -71.475087",85,Open,1/20/2015,SC,thread
"Hooksett (south), NH",Interstate 93 S,Hooksett,NH,Hooksett_NH,3106,USA,6,"43.109521, -71.477006",85,Open,1/15/2015,SC,thread
"Hope, BC",Fort St and Fraser Ave,Hope,BC,Hope_BC,V0X 1L0,Canada,6,"49.37829, -121.442822",44,Open,12/9/2014,SC,thread
"Houston, TX",14820 North Freeway,Houston,TX,Houston_TX,77090,USA,6,"29.980741, -95.421697",31,Open,7/9/2015,SC,thread
"Huntsville, ON",70 King William St,Huntsville,ON,Huntsville_ON,,Canada,9,"45.333611, -79.206703",300,Open,9/30/2016,SC,thread
"Huntsville, TX",148 Interstate 45,Huntsville,TX,Huntsville_TX,77340,USA,6,"30.716158, -95.565944",123,Open,11/20/2013,SC,forum
"Idaho Falls, ID",940 Pier View Dr,Idaho Falls,ID,Idaho Falls_ID,,USA,8,"43.485152, -112.05205","1,426",Open,6/9/2016,SC,thread
"Independence, MO",18001 Bass Pro Drive,Independence,MO,Independence_MO,64055,USA,6,"39.040814, -94.369265",245,Open,2/17/2015,SC,thread
"Indianapolis, IN",5120 Victory Drive,Indianapolis,IN,Indianapolis_IN,46203,USA,8,"39.702444, -86.079687",253,Open,10/29/2014,SC,thread
"Indio, CA",42100 Jackson St,Indio,CA,Indio_CA,92203,USA,8,"33.741484, -116.215019",-3,Open,9/26/2014,SC,thread
"Inyokern, CA",1353 Brown Rd,Inyokern,CA,Inyokern_CA,93527,USA,4,"35.646461, -117.812629",742,Open,3/20/2015,SC,thread
"Jackson, TN",56 Casey Jones Ln,Jackson,TN,Jackson_TN,38305,USA,8,"35.660349, -88.855771",100,Open,11/30/2016,SC,thread
"Jackson, WY",1155 S. Highway 89,Jackson,WY,Jackson_WY,83001,USA,8,"43.463995, -110.794875","1,868",Open,10/19/2016,SC,thread
"JFK Airport, NY",150th Ave and 147th St,Queens,NY,Queens_NY,11430,USA,4,"40.66319, -73.793192",3,Open,12/23/2013,SC,thread
"Joplin, MO",3615 Range Line Rd,"Joplin, MO",MO,"Joplin, MO_MO",64804,USA,8,"37.047552, -94.473399",314,Open,11/30/2016,SC,thread
"Junction, TX",2415 N Main St,Junction,TX,Junction_TX,76849,USA,8,"30.509233, -99.77456",519,Open,1/4/2017,SC,thread
"Kamloops, BC",1290 Trans-Canada Hwy,Kamloops,BC,Kamloops_BC,V2C 6R3,Canada,4,"50.655233, -120.368302",616,Open,12/23/2014,SC,thread
"Kelowna, BC","Best Western, 2402 Hwy 97 N",Kelowna,BC,Kelowna_BC,V1X 4J1,Canada,8,"49.885795, -119.429273",376,Open,12/30/2015,SC,thread
"Kennewick, WA",2811 W 10th Ave,Kennewick,WA,Kennewick_WA,99336,USA,8,"46.198085, -119.162734",167,Open,9/4/2015,SC,thread
"Kingman, AZ",789 West Beale Street,Kingman,AZ,Kingman_AZ,86401,USA,6,"35.191331, -114.065592","1,025",Open,1/22/2014,SC,thread
"Kingsland, GA",Kingsland Welcome Center 1190 East Boone Ave,Kingsland,GA,Kingsland_GA,31548,USA,6,"30.790764, -81.663729",8,Open,11/18/2015,SC,thread
"Kingston, NY",640 Washington Ave,Kingston,NY,Kingston_NY,12401,USA,8,"41.941916, -74.027208",47,Open,10/18/2016,SC,thread
"Kingston, ON",97 Dalton Ave,Kingston,ON,Kingston_ON,K7K 0C4,Canada,6,"44.267307, -76.503291",90,Open,1/29/2015,SC,thread
"Kingsville, TX",2400 South Highway 77,Kingsville,TX,Kingsville_TX,78363,USA,8,"27.493808, -97.844399",17,Open,11/15/2016,SC,thread
"Klamath Falls, OR",1401 Washburn Way,Klamath Falls,OR,Klamath Falls_OR,97603,USA,8,"42.216906, -121.756218","1,250",Open,3/16/2017,SC,thread
"Knoxville, TN",11038 Parkside Dr,Knoxville,TN,Knoxville_TN,37934,USA,8,"35.90229, -84.150775",286,Open,5/27/2015,SC,thread
"Kuttawa, KY",62 Days Inn Dr,Kuttawa,KY,Kuttawa_KY,42055,USA,8,"37.073405, -88.124752",134,Open,1/1/2017,SC,thread
"La Crosse, WI",2845 Midwest Dr,Onalaska,WI,Onalaska_WI,54650,USA,6,"43.879042, -91.188428",219,Open,1/5/2014,SC,thread
"Lafayette, IN",4901 Indiana 26,Lafayette,IN,Lafayette_IN,47905,USA,8,"40.416993, -86.812428",202,Open,10/10/2014,SC,thread
"Lake Charles, LA",1772 W. Prien Lake Rd,Lake Charles,LA,Lake Charles_LA,70601,USA,6,"30.200741, -93.248171",3,Open,12/21/2014,SC,thread
"Lake City, FL",2893 W US Highway 90,Lake City,FL,Lake City_FL,32055,USA,6,"30.181429, -82.679701",46,Open,8/20/2014,SC,thread
"Las Vegas Blvd South, NV",6509 S Las Vegas Blvd,"Las Vegas, NV",NV,"Las Vegas, NV_NV",89119,USA,10,"36.070633, -115.17295",673,Open,3/8/2017,SC,thread
"Las Vegas, NM",2500 N Grand Ave,Las Vegas,NM,Las Vegas_NM,87701,USA,6,"35.621267, -105.204598","1,970",Open,9/14/2015,SC,thread
"Las Vegas, NV",701 Bridger Ave,Las Vegas,NV,Las Vegas_NV,89101,USA,6,"36.165906, -115.138655",609,Open,2/19/2014,SC,thread
"Laurel, MD",14700 Baltimore Ave,Laurel,MD,Laurel_MD,20707,USA,8,"39.095382, -76.858319",55,Open,9/23/2016,SC,thread
"Lee, MA",10 Pleasant Street,Lee,MA,Lee_MA,1238,USA,8,"42.29571, -73.239245",267,Open,8/20/2016,SC,thread
"Lexington, KY",2155 Paul Jones Way,Lexington,KY,Lexington_KY,40509,USA,8,"38.017955, -84.420664",310,Open,1/30/2015,SC,thread
"Lexington, VA",880 N. Lee Highway,Lexington,VA,Lexington_VA,,USA,6,"37.796979, -79.419007",319,Open,12/16/2015,SC,thread
"Lima, MT","108 Bailey St,",Lima,MT,Lima_MT,59739,USA,8,"44.632745, -112.591203","1,912",Open,1/9/2017,SC,thread
"Lima, OH",1933 Roschman Ave,Lima,OH,Lima_OH,45804,USA,8,"40.726668, -84.071932",271,Open,12/23/2014,SC,thread
"Limon, CO",2221 6th St,Limon,CO,Limon_CO,80828,USA,6,"39.268842, -103.708604","1,652",Open,6/21/2014,SC,thread
"Lincoln City, OR",1500 SE East Devils Lake Rd,Lincoln City,OR,Lincoln City_OR,97138,USA,8,"44.957751, -124.010966",24,Open,8/19/2016,SC,thread
"Lincoln, NE",5020 N 27th St,Lincoln,NE,Lincoln_NE,68521,USA,8,"40.860817, -96.679723",368,Open,1/5/2017,SC,thread
"Lincoln, NH",22 S Mountain Dr,Lincoln,NH,Lincoln_NH,3251,USA,6,"44.042314, -71.668127",245,Open,11/24/2016,SC,thread
"Lindale, TX",Collin St Bakery 17044 I-20,Lindale,TX,Lindale_TX,75771,USA,8,"32.470885, -95.450473",167,Open,6/8/2016,SC,thread
"Little Rock, AR",11231 Bass Pro Parkway off of I-430,Little Rock,AR,Little Rock_AR,,USA,10,"34.6614, -92.41031",95,Open,5/20/2017,SC,thread
"London, KY",140 Faith Assembly Church Rd,London,KY,London_KY,40741,USA,6,"37.14916, -84.11385",361,Open,2/4/2015,SC,thread
"Lone Pine, CA",701 S. Main St,Lone Pine,CA,Lone Pine_CA,93545,USA,4,"36.60059, -118.061916","1,137",Open,1/28/2015,SC,thread
"Lone Tree, CO",8401 Park Meadows Center Dr,Lone Tree,CO,Lone Tree_CO,80124,USA,4,"39.563776, -104.875651","1,785",Open,2/26/2014,SC,thread
"Louisville, KY",3101 Bardstown Rd,Louisville,KY,Louisville_KY,40205,USA,8,"38.211846, -85.673087",151,Open,12/30/2015,SC,thread
"Loveland, CO",Embassy Suites at 4705 Clydesdale Pkwy,Loveland,CO,Loveland_CO,80538,USA,10,"40.44146, -104.991205","1,546",Open,12/29/2016,SC,thread
"Lovelock, NV",150 Main St,Lovelock,NV,Lovelock_NV,89419,USA,4,"40.179476, -118.472135","1,213",Open,1/28/2015,SC,thread
"Lumberton, NC",5093 Fayetteville Road,Lumberton,NC,Lumberton_NC,28358,USA,4,"34.667629, -79.002343",40,Open,1/17/2014,SC,thread
"Lusk, WY",730 S. Main St,Lusk,WY,Lusk_WY,82225,USA,4,"42.75625, -104.45267","1,529",Open,12/19/2013,SC,thread
"Macedonia, OH",8210 Macedonia Commons Blvd,Macedonia,OH,Macedonia_OH,44056,USA,6,"41.313663, -81.517018",296,Open,1/15/2014,SC,thread
"Macon, GA",450 Martin Luther King Jr Blvd,Macon,GA,Macon_GA,31201,USA,8,"32.833428, -83.625557",98,Open,5/8/2014,SC,thread
"Madison, WI",89 E Towne Mall,Madison,WI,Madison_WI,53704,USA,3,"43.12669, -89.306896",267,Open,1/13/2014,SC,thread
"Magog, QC",2381 Rue Principale Ouest,Magog,QC,Magog_QC,J1X0J4,Canada,8,"45.281273, -72.185744",220,Open,6/22/2016,SC,thread
"Mammoth Lakes, CA",165 Old Mammoth Rd,Mammoth Lakes,CA,Mammoth Lakes_CA,93546,USA,8,"37.644544, -118.965875","2,390",Open,1/21/2016,SC,thread
"Manteca, CA",960 Perimeter Dr,Manteca,CA,Manteca_CA,95337,USA,8,"37.782622, -121.228683",9,Open,2/12/2015,SC,thread
"Marathon, FL",9400 Overseas Highway,Marathon,FL,Marathon_FL,33050,USA,4,"24.725172, -81.051135",1,Open,5/2/2015,SC,thread
"Marshall, MI",15252 US Hwy 27 N,Marshall,MI,Marshall_MI,49068,USA,8,"42.29238, -84.96299",289,Construction,,SC,thread
"Maumee, OH",1391 Conant Street,Maumee,OH,Maumee_OH,43537,USA,6,"41.57835, -83.66465",192,Open,1/13/2014,SC,thread
"Mauston, WI",640 Mc Evoy St,Mauston,WI,Mauston_WI,53948,USA,6,"43.795551, -90.059358",265,Open,12/9/2013,SC,forum
"McAllen, TX",800 Convention Center Blvd,McAllen,TX,McAllen_TX,78501,USA,8,"26.199278, -98.260864",30,Construction,,SC,thread
"Memphis, TN",1203 Ridgeway Rd,Memphis,TN,Memphis_TN,38119,USA,8,"35.097801, -89.858957",95,Open,12/1/2016,SC,thread
"Meridian, MS",1210 Bonita Lakes Drive,Meridian,MS,Meridian_MS,39301,USA,8,"32.35748, -88.667805",122,Open,10/7/2016,SC,thread
"Merritt, BC",3969 Crawford Ave,Merritt,BC,Merritt_BC,V1K 0A4,Canada,8,"50.124377, -120.751136",634,Open,1/27/2017,SC,thread
"Midland, TX",3001 Antelope Trail,Midland,TX,Midland_TX,79703,USA,8,"31.947565, -102.142205",865,Open,12/24/2016,SC,thread
"Milford, CT","Connecticut Post Mall, 1201 Post Rd",Milford,CT,Milford_CT,,USA,14,"41.238035, -73.036156",6,Open,4/28/2017,SC,thread
"Milford, CT (north)",1 CT Turnpike N,Milford,CT,Milford_CT,6460,USA,2,"41.245814, -73.008988",19,Open,12/16/2012,SC,forum
"Milford, CT (south)",1 CT Turnpike S,Milford,CT,Milford_CT,6460,USA,2,"41.246232, -73.010529",19,Open,12/16/2012,SC,forum
"Miner, MO",2612 E Malone Ave,Miner,MO,Miner_MO,63801,USA,8,"36.893583, -89.533986",94,Open,6/1/2016,SC,thread
"Mishawaka, IN",6501 Grape Rd,Mishawaka,IN,Mishawaka_IN,46545,USA,6,"41.7174, -86.1887",234,Open,12/11/2013,SC,thread
"Missoula, MT",5280 Grant Creek Rd,Missoula,MT,Missoula_MT,59808,USA,6,"46.912545, -114.031824","1,009",Open,10/29/2014,SC,thread
"Mitchell, SD",1305 W. Havens Street,Mitchell,SD,Mitchell_SD,57301,USA,6,"43.701129, -98.0445",410,Open,12/18/2013,SC,forum
"Moab, UT",16 South Main St.,Moab,UT,Moab_UT,84511,USA,4,"38.573122, -109.552368","1,224",Open,1/22/2014,SC,thread
"Mobile, AL",3201 Airport Blvd,Mobile,AL,Mobile_AL,36606,USA,8,"30.675347, -88.11901",6,Open,4/16/2015,SC,thread
"Mojave, CA",Anthony's Grill 16940 California 14 Hwy 14,Mojave,CA,Mojave_CA,93501,USA,6,"35.068595, -118.174576",866,Open,3/27/2015,SC,thread
"Monroe, LA",4915 Pecanland Mall Dr,Monroe,LA,Monroe_LA,,USA,8,"32.496251, -92.056057",21,Open,9/16/2016,SC,thread
"Monroe, WA",15067 N Kelsey St,Monroe,WA,Monroe_WA,98272,USA,12,"47.86274, -121.97672",20,Open,4/25/2017,SC,thread
"Montreal (SC), QC",5350 Ferrier St,Montreal,QC,Montreal_QC,H4P 1L9,Canada,2,"45.496185, -73.658793",46,Open,1/22/2015,SC,thread
"Moosic, PA","Shoppes at Montage, 2142–2598 Shoppes Blvd",Moosic,PA,Moosic_PA,18507,USA,8,"41.361979, -75.676596",320,Open,1/5/2017,SC,thread
"Morgantown, WV",21 Asturias Lane,Morgantown,WV,Morgantown_WV,,USA,8,"39.579175, -79.953493",401,Construction,,SC,thread
"Mount Vernon, IL",222 Potomac Blvd,Mount Vernon,IL,Mount Vernon_IL,,USA,8,"38.316292, -88.955923",146,Open,10/27/2016,SC,thread
"Mountain View, CA",1401 N Shoreline Blvd,Mountain View,CA,Mountain View_CA,94043,USA,12,"37.415344, -122.076607",6,Open,6/10/2015,SC,thread
"Mt Shasta, CA",111 Morgan Way,Mt. Shasta,CA,Mt. Shasta_CA,96067,USA,4,"41.310233, -122.317278","1,066",Open,10/23/2013,SC,forum
"Mt. Gilead, OH",6200 State Route 95,Mt. Gilead,OH,Mt. Gilead_OH,43338-9548,USA,8,"40.494024, -82.712896",354,Open,12/16/2016,SC,thread
"Murdo, SD",302 W 5th St,Murdo,SD,Murdo_SD,57559,USA,4,"43.886915, -100.716887",691,Open,12/31/2013,SC,thread
"Myrtle Beach, SC","Coastal Grand Mall, 2000 Coastal Grand Cir",Myrtle Beach,SC,Myrtle Beach_SC,29577,USA,10,"33.704388, -78.925172",6,Open,3/25/2017,SC,thread
"Napa, CA",Devlin Rd & Airport Blvd,Napa,CA,Napa_CA,94558,USA,8,"38.2356, -122.264",15,Open,7/11/2016,SC,thread
"Naples, FL",499 Bayfront Place,Naples,FL,Naples_FL,34102,USA,8,"26.14462, -81.788849",2,Open,2/23/2017,SC,thread
"Nashville, TN",1641 Westgate Circle,Brentwood,TN,Brentwood_TN,37027,USA,6,"35.969209, -86.804641",226,Open,7/8/2015,SC,thread
"Needles, CA",2451 Needles HWY,Needles,CA,Needles_CA,92363,USA,4,"34.850835, -114.624329",157,Open,1/16/2015,SC,thread
"Nephi, UT",2100 S Main St,Nephi,UT,Nephi_UT,84648,USA,6,"39.678397, -111.840704","1,555",Open,6/11/2014,SC,thread
"New Rochelle, NY",33 Lecount Place,New Rochelle,NY,New Rochelle_NY,10801,USA,8,"40.912298, -73.780132",36,Permit,,SC,thread
"Newark, DE",530 JFK Memorial Highway,Newark,DE,Newark_DE,19725,USA,12,"39.662313, -75.69198",18,Open,12/21/2012,SC,thread
"Newburgh, NY",1217 Route 300,Newburgh,NY,Newburgh_NY,12550,USA,6,"41.499775, -74.071261",104,Open,6/23/2015,SC,thread
"Norfolk, VA",5900 E Virginia Beach Blvd,Norfolk,VA,Norfolk_VA,,USA,6,"36.858614, -76.206015",4,Open,10/18/2015,SC,thread
"Normal, IL",Uptown Station Parking Deck 11 Uptown Circle,Normal,IL,Normal_IL,61761,USA,4,"40.508497, -88.985575",236,Open,6/26/2013,SC,thread
"North Aurora, IL",151 Hansen Blvd,North Aurora,IL,North Aurora_IL,60542,USA,8,"41.802949, -88.370249",212,Open,10/5/2016,SC,thread
"North East, MD","Chesapeake House Travel Plaza, I-95",North East,MD,North East_MD,21901,USA,8,"39.612323, -76.009855",111,Permit,,SC,thread
"Oakdale, MN",7180 10th St. N.,Oakdale,MN,Oakdale_MN,,USA,8,"44.96499, -92.96129",329,Open,8/17/2016,SC,thread
"Ocala, FL",4414 SW College Road,Ocala,FL,Ocala_FL,34474,USA,8,"29.140985, -82.19395",23,Open,11/3/2014,SC,thread
"Ogallala, NE",501 Stagecoach Trail,Ogallala,NE,Ogallala_NE,69153,USA,8,"41.116493, -101.709415",977,Open,12/2/2016,SC,thread
"Oklahoma City, OK",7624 West Reno Ave #380,Oklahoma City,OK,Oklahoma City_OK,,USA,8,"35.461704, -97.651445",372,Open,7/31/2015,SC,thread
"Orlando, FL",Turkey Lake Service Plaza,Orlando,FL,Orlando_FL,32835,USA,6,"28.514874, -81.500214",1,Open,11/21/2014,SC,thread
"Osage Beach, MO",919 Hwy D,Osage Beach,MO,Osage Beach_MO,65065,USA,8,"38.162028, -92.605238",242,Construction,,SC,thread
"Oxnard, CA",2751 Park View Ct,Oxnard,CA,Oxnard_CA,93036,USA,12,"34.238654, -119.177398",24,Open,9/24/2014,SC,thread
"Ozona, TX",1307 Avenue A,Ozona,TX,Ozona_TX,76943,USA,6,"30.706696, -101.195962",718,Open,1/19/2017,SC,thread
"Page, AZ",600 Clubhouse Dr,Page,AZ,Page_AZ,86040,USA,8,"36.924902, -111.468041","1,239",Open,9/10/2016,SC,thread
"Paramus, NJ",530 New Jersey 17,Paramus,NJ,Paramus_NJ,7652,USA,8,"40.957429, -74.07408",15,Open,11/26/2014,SC,thread
"Parry Sound, ON",292 Louisa Street,Parry Sound,ON,Parry Sound_ON,,Canada,8,"45.345576, -80.005751",228,Open,9/4/2016,SC,thread
"Pearl, MS",200 Bass Pro Dr,Pearl,MS,Pearl_MS,39208,USA,8,"32.274159, -90.151048",79,Open,3/31/2016,SC,thread
"Pendleton, OR",46510 Wildhorse Blvd,Pendleton,OR,Pendleton_OR,97801,USA,8,"45.648679, -118.678968",437,Open,5/28/2015,SC,thread
"Perry, OK",2812 Fir St,Perry,OK,Perry_OK,73077,USA,6,"36.289315, -97.325935",330,Open,4/15/2015,SC,thread
"Peru, IL",1651 Midtown Rd,Peru,IL,Peru_IL,61354,USA,8,"41.348503, -89.126115",195,Open,6/22/2016,SC,thread
"Petaluma, CA",401 Kenilworth Dr #1030,Petaluma,CA,Petaluma_CA,94952,USA,12,"38.242693, -122.625049",8,Open,2/3/2015,SC,thread
"Plantation, FL",813 S University Dr,Plantation,FL,Plantation_FL,33324,USA,8,"26.108614, -80.252268",1,Open,12/19/2015,SC,thread
"Plattsburgh, NY",60 Smithfield Blvd,Plattsburgh,NY,Plattsburgh_NY,12901,USA,8,"44.704537, -73.491829",94,Open,6/9/2016,SC,thread
"Pleasant Prairie, WI",11211 120th Avenue,Pleasant Prairie,WI,Pleasant Prairie_WI,53158,USA,8,"42.518715, -87.950428",216,Open,2/13/2014,SC,thread
"Plymouth, NC",840 U.S. 64,Plymouth,NC,Plymouth_NC,27962,USA,8,"35.850587, -76.756116",5,Open,3/12/2014,SC,thread
"Pocatello, ID","Clarion Inn, 1399 Bench Rd",Pocatello,ID,Pocatello_ID,83201,USA,8,"42.899615, -112.435248","1,409",Open,5/24/2016,SC,thread
"Port Hope, ON",Northumberland County Rd 28,Port Hope,ON,Port Hope_ON,,Canada,8,"43.97171, -78.285431",108,Open,12/20/2015,SC,thread
"Port Huron, MI",500 Thomas Edison Pkwy,Port Huron,MI,Port Huron_MI,48060,USA,8,"42.998817, -82.428935",182,Open,8/18/2016,SC,thread
"Port Orange, FL",5302 S. Williamson Blvd,Port Orange,FL,Port Orange_FL,32128,USA,6,"29.108566, -81.034569",7,Open,9/13/2013,SC,forum
"Port St. Lucie, FL",1773 N.W. St. Lucie W. Boulevard,Port St. Lucie,FL,Port St. Lucie_FL,34986,USA,8,"27.313023, -80.406688",8,Open,7/24/2013,SC,forum
"Price, UT",925 West Westwood Blvd,Price,UT,Price_UT,84501,USA,8,"39.600731, -110.831701","1,207",Open,10/16/2015,SC,thread
"Primm, NV",31900 Las Vegas Blvd S,Primm,NV,Primm_NV,89019,USA,10,"35.610687, -115.388028",795,Open,11/26/2014,SC,thread
"Quartzsite, AZ",1451 W Main St,Quartzsite,AZ,Quartzsite_AZ,85346,USA,8,"33.661314, -114.242174",280,Open,11/14/2013,SC,forum
"Queensbury, NY","Aviation Mall, 578 Aviation Rd",Queensbury,NY,Queensbury_NY,12804,USA,8,"43.328388, -73.679992",130,Open,7/15/2016,SC,thread
"Rancho Cucamonga, CA",12505 North Main Street,Rancho Cucamonga,CA,Rancho Cucamonga_CA,91739,USA,12,"34.113592, -117.529406",381,Open,11/20/2014,SC,thread
"Rapid City, SD",2200 N. Maple Ave,Rapid City,SD,Rapid City_SD,57701,USA,4,"44.105601, -103.212569","1,006",Open,11/25/2013,SC,forum
"Red Deer, AB",3310 50 Ave,Red Deer,AB,Red Deer_AB,T4N 3X9,Canada,4,"52.251899, -113.814659",878,Open,1/22/2015,SC,thread
"Redondo Beach, CA",2410 Marine Ave,Redondo Beach,CA,Redondo Beach_CA,90278,USA,8,"33.894294, -118.367379",21,Open,1/20/2015,SC,thread
"Reno, NV",3800 S Virginia St,Reno,NV,Reno_NV,89509,USA,6,"39.489732, -119.794179","1,356",Open,5/5/2016,SC,thread
"Revelstoke, BC",1925 Laforme Blvd,Revelstoke,BC,Revelstoke_BC,BC V0E,Canada,4,"51.009594, -118.218857",451,Open,12/30/2014,SC,thread
"Richfield, UT",20 W 1400 N,Richfield,UT,Richfield_UT,84701,USA,4,"38.788161, -112.083841","1,659",Open,4/4/2014,SC,thread
"Ritzville, WA",105 Galbreath Way,Ritzville,WA,Ritzville_WA,99169,USA,4,"47.116294, -118.368328",570,Open,5/18/2014,SC,thread
"Riviera Beach, FL",4651 Dyer Blvd,Riviera Beach,FL,Riviera Beach_FL,33407,USA,8,"26.778172, -80.112944",4,Open,3/21/2015,SC,thread
"Rivière du Loup, QC",311 boul. Hôtel-de-Ville,Rivière du Loup,QC,Rivière du Loup_QC,G5R 5S4,Canada,8,"47.82017, -69.558776",40,Open,9/22/2016,SC,thread
"Rock Springs, WY",2475 Foothill Blvd,Rock Springs,WY,Rock Springs_WY,82901,USA,8,"41.580814, -109.262159","1,904",Permit,,SC,thread
"Rockford, IL",7200 Harrison Ave,Rockford,IL,Rockford_IL,61112,USA,6,"42.243896, -88.978877",238,Open,9/12/2013,SC,thread
"Rocklin (SC), CA",4361 Granite Drive,Rocklin,CA,Rocklin_CA,95677,USA,8,"38.800537, -121.210485",98,Open,2/20/2015,SC,thread
"Rocky Mount, NC",651 N. Winstead Avenue,Rocky Mount,NC,Rocky Mount_NC,27804,USA,8,"35.972874, -77.84687",40,Open,11/8/2013,SC,thread
"Rolla, MO",1705 Martin Spring Dr,Rolla,MO,Rolla_MO,65401,USA,8,"37.940064, -91.801658",293,Open,9/27/2016,SC,thread
"Rolling Meadows, IL",1301 Meijer Drive,Rolling Meadows,IL,Rolling Meadows_IL,60008,USA,10,"42.050188, -87.995686",219,Permit,,SC,thread
"Roseville, CA",1151 Galleria Blvd,Roseville,CA,Roseville_CA,95678,USA,7,"38.771208, -121.266149",66,Open,4/29/2014,SC,thread
"Sagamore, MA",22 Meetinghouse Ln,Sagamore,MA,Sagamore_MA,2562,USA,8,"41.781242, -70.540271",26,Open,10/27/2014,SC,thread
"Saint-Laurent, QC",3131 Boulevard de la Côte-Vertu,Saint-Laurent,QC,Saint-Laurent_QC,H4R 1Y8,Canada,12,"45.500503, -73.707943",33,Open,7/13/2016,SC,thread
"Salina, KS",755 W Diamond Dr,Salina,KS,Salina_KS,67401,USA,6,"38.877342, -97.618699",371,Open,7/4/2014,SC,thread
"Salisbury, MD",2300 North Salisbury Blvd.,Salisbury,MD,Salisbury_MD,21801,USA,6,"38.401648, -75.564818",12,Open,11/8/2014,SC,thread
"Salt Lake City, UT",2312 S State St,Salt Lake City,UT,Salt Lake City_UT,84115,USA,10,"40.7209, -111.888395","1,297",Open,3/6/2015,SC,thread
"San Diego, CA",10105 Pacific Heights Blvd,San Diego,CA,San Diego_CA,92121,USA,12,"32.902137, -117.193489",88,Open,6/8/2015,SC,thread
"San Juan Capistrano, CA",31971 Camino Capistrano,San Juan Capistrano,CA,San Juan Capistrano_CA,92675,USA,7,"33.498458, -117.6632",30,Open,5/6/2014,SC,thread
"San Marcos, TX",3939 Interstate 35,San Marcos,TX,San Marcos_TX,78666,USA,5,"29.827692, -97.979677",202,Open,8/20/2013,SC,forum
"San Mateo, CA",1200 Park Pl,San Mateo,CA,San Mateo_CA,94403,USA,8,"37.544632, -122.290188",3,Open,7/10/2015,SC,thread
"Sandy, OR",16625 SE 362nd Dr,Sandy,OR,Sandy_OR,97055,USA,8,"45.403531, -122.294242",236,Open,11/4/2015,SC,thread
"Santa Ana, CA",2800 N Main St,Santa Ana,CA,Santa Ana_CA,92705,USA,12,"33.776011, -117.872176",47,Open,12/6/2016,SC,thread
"Santa Fe, NM",8380 Cerrillos Road,Santa Fe,NM,Santa Fe_NM,87507,USA,8,"35.611793, -106.032196","1,961",Open,4/13/2017,SC,thread
"Santa Rosa, NM",2516 Historic Rt 66,Santa Rosa,NM,Santa Rosa_NM,88435,USA,6,"34.947013, -104.647997","1,440",Open,3/13/2015,SC,thread
"Santee, SC",114 Bradford Blvd.,Santee,SC,Santee_SC,29142,USA,6,"33.485858, -80.475763",39,Open,12/27/2013,SC,thread
"Savannah, GA",400 Airways Avenue,Savannah,GA,Savannah_GA,31408,USA,6,"32.135507, -81.212767",6,Open,1/15/2014,SC,thread
"Seabrook, NH",700 Lafayette Rd,Seabrook,NH,Seabrook_NH,3874,USA,8,"42.895182, -70.869351",16,Open,10/9/2015,SC,thread
"Seaside, CA",1901 Del Monte Blvd,Seaside,CA,Seaside_CA,93955,USA,6,"36.616759, -121.844014",10,Open,8/13/2015,SC,thread
"Seaside, OR",1111 North Roosevelt Drive,Seaside,OR,Seaside_OR,97138,USA,8,"46.00101, -123.91683",5,Open,7/1/2016,SC,thread
"Shamrock, TX",107 East 12th St,Shamrock,TX,Shamrock_TX,79079,USA,6,"35.226765, -100.24836",704,Open,2/20/2015,SC,thread
"Sheboygan, WI","595 Taylor Dr, by Festival Foods",Sheboygan,WI,Sheboygan_WI,53081,USA,8,"43.749912, -87.747073",200,Open,10/7/2015,SC,thread
"Sheridan, WY",612 North Main St,Sheridan,WY,Sheridan_WY,82801,USA,4,"44.804565, -106.956363","1,136",Open,7/15/2015,SC,thread
"Shreveport, LA",1133 St. Vincent Ave,Shreveport,LA,Shreveport_LA,71104,USA,8,"32.478594, -93.75437",59,Open,5/12/2016,SC,thread
"Sidney, NE",645 Cabela Drive,Sidney,NE,Sidney_NE,69162,USA,8,"41.115424, -102.949694","1,291",Open,5/10/2017,SC,thread
"Silverthorne, CO",309 Rainbow Dr,Silverthorne,CO,Silverthorne_CO,80498,USA,8,"39.631457, -106.070816","2,670",Open,10/3/2013,SC,forum
"Slidell, LA",Fremaux Town Center 1303 Town Center Pkwy,Slidell,LA,Slidell_LA,70458,USA,8,"30.266552, -89.760156",3,Open,2/6/2016,SC,thread
"Somerset, PA",1030 North Center Avenue,Somerset,PA,Somerset_PA,15501,USA,6,"40.017383, -79.077117",640,Open,1/10/2014,SC,thread
"South Burlington, VT",222 Dorset St,South Burlington,VT,South Burlington_VT,5403,USA,8,"44.463327, -73.180184",94,Open,11/4/2015,SC,thread
"South Hill, VA",1791 N Mecklenburg Ave,South Hill,VA,South Hill_VA,23970,USA,6,"36.748445, -78.103764",125,Open,8/7/2014,SC,thread
"Southampton, NY",850 County Road 39,Southampton,NY,Southampton_NY,11968,USA,8,"40.891909, -72.426995",14,Open,6/3/2016,SC,thread
"Springfield, IL",3801 South MacArthur Blvd,Springfield,IL,Springfield_IL,62711,USA,8,"39.748868, -89.67119",184,Open,1/9/2015,SC,thread
"Springfield, MO",3050 North Kentwood St,Springfield,MO,Springfield_MO,65803,USA,8,"37.251836, -93.265534",398,Open,11/16/2016,SC,thread
"Springfield, OR",919 Kruse Way,Springfield,OR,Springfield_OR,97477,USA,8,"44.082605, -123.037471",133,Open,11/2/2013,SC,forum
"Squamish, BC",40147 Glenalder Pl,Squamish,BC,Squamish_BC,V8B 0G2,Canada,6,"49.736901, -123.134573",35,Open,7/12/2014,SC,thread
"St Augustine, FL","2700 State Road 16, Suite 200",St. Augustine,FL,St. Augustine_FL,32092,USA,6,"29.920735, -81.416337",14,Open,1/3/2014,SC,thread
"St. Charles, MO",2021 Zumbehl Rd,St. Charles,MO,St. Charles_MO,63303,USA,5,"38.782139, -90.532862",149,Open,4/15/2015,SC,thread
"St. George, UT",1091 N Bluff St,St. George,UT,St. George_UT,84770,USA,4,"37.125336, -113.60272",887,Open,8/14/2014,SC,thread
"St. Joseph, MI",3260 Niles Rd,St. Joseph,MI,St. Joseph_MI,49085,USA,8,"42.056357, -86.456352",210,Open,11/26/2013,SC,thread
"Statesville, NC",1520 Cinema Drive,Statesville,NC,Statesville_NC,28625,USA,8,"35.781958, -80.860368",273,Permit,,SC,thread
"Strasburg, VA",119 Hite Ln,Strasburg,VA,Strasburg_VA,22657,USA,6,"39.00496, -78.337836",204,Open,9/2/2015,SC,thread
"Sulphur Springs, TX",300 W Tomlinson Street St,Sulphur Springs,TX,Sulphur Springs_TX,75482,USA,8,"33.137172, -95.603239",151,Open,6/29/2016,SC,thread
"Superior, MT",205 E 4th Ave,Superior,MT,Superior_MT,59872,USA,4,"47.192149, -114.888901",835,Open,12/5/2014,SC,thread
"Sweetwater, TX",300 SE Georgia Ave,Sweetwater,TX,Sweetwater_TX,79556,USA,8,"32.450591, -100.392455",660,Open,8/19/2016,SC,thread
"Syosset, NY",7 Aeriel Way,Syosset,NY,Syosset_NY,11791,USA,4,"40.799839, -73.515267",56,Open,1/18/2014,SC,thread
"Syracuse, NY","439 Electronics Parkway,",Liverpool,NY,Liverpool_NY,13088,USA,8,"43.102516, -76.187475",123,Open,4/16/2015,SC,thread
"Tallahassee, FL",1400 Village Square Blvd,Tallahassee,FL,Tallahassee_FL,32309,USA,6,"30.510935, -84.247838",63,Open,9/23/2015,SC,thread
"Tannersville, PA",1000 Premium Outlets Dr,Tannersville,PA,Tannersville_PA,18372,USA,8,"41.045431, -75.312244",284,Open,12/14/2015,SC,thread
"Tarrytown, NY",600 White Plains Road,Tarrytown,NY,Tarrytown_NY,10591,USA,12,"41.061499, -73.836411",51,Open,12/2/2016,SC,thread
"Tejon Ranch, CA",5602 Dennis McCarthy Dr,Lebec,CA,Lebec_CA,93243,USA,10,"34.98734, -118.94623",337,Open,11/19/2012,SC,thread
"Temecula, CA",40820 Winchester Rd,Temecula,CA,Temecula_CA,92591,USA,10,"33.52421, -117.152568",324,Open,5/10/2016,SC,thread
"Terre Haute, IN","Meijer, 5600 E, New Margaret Dr",Terre Haute,IN,Terre Haute_IN,47803,USA,8,"39.443345, -87.331737",171,Open,3/30/2016,SC,thread
"Texarkana, TX",3101 Mall Dr,Texarkana,TX,Texarkana_TX,75503,USA,8,"33.459926, -94.077179",100,Open,12/21/2016,SC,thread
"The Dalles, OR",2114 W 6th,The Dalles,OR,The Dalles_OR,97058,USA,5,"45.611964, -121.208526",45,Open,8/1/2014,SC,thread
"Three Rivers, TX","2645 S. Hwy 37, I-37 Exit 72",Three Rivers,TX,Three Rivers_TX,78071,USA,8,"28.521614, -98.185829",51,Open,9/30/2016,SC,thread
"Tifton, GA",1310 U.S. 82,Tifton,GA,Tifton_GA,31794,USA,8,"31.448583, -83.534472",92,Open,7/10/2014,SC,thread
"Tinton Falls, NJ",1 Premium Outlets Blvd,Tinton Falls,NJ,Tinton Falls_NJ,7753,USA,8,"40.226272, -74.093538",33,Open,9/19/2015,SC,thread
"Tonopah, NV",171 Main St.,Tonopah,NV,Tonopah_NV,89049,USA,8,"38.069801, -117.232243","1,834",Open,6/3/2016,SC,thread
"Tooele, UT",1568 East Saddleback Blvd,Tooele,UT,Tooele_UT,84074,USA,6,"40.684486, -112.268818","1,290",Open,2/25/2015,SC,thread
"Topeka, KS",5930 Huntoon Street,Topeka,KS,Topeka_KS,66614,USA,8,"39.044199, -95.76046",283,Open,10/17/2014,SC,thread
"Toronto (SC), ON",1325 Lawrence Ave East,Toronto,ON,Toronto_ON,M3A 1C6,Canada,8,"43.740222, -79.322389",138,Open,8/26/2014,SC,thread
"Traverse City, MI","Meijer, 3955 US-31",Traverse City,MI,Traverse City_MI,49684,USA,8,"44.743292, -85.64259",191,Permit,,SC,thread
"Tremonton, UT",Hampton Inn 2145 W Main St,Tremonton,UT,Tremonton_UT,84337,USA,6,"41.70995, -112.198576","1,317",Open,4/1/2015,SC,thread
"Triadelphia, WV",35 Bob Wise Drive,Triadelphia,WV,Triadelphia_WV,26059,USA,4,"40.060757, -80.602874",397,Open,5/7/2014,SC,thread
"Trinidad, CO",9960 Santa Fe Trail,Trinidad,CO,Trinidad_CO,81082,USA,6,"37.134228, -104.519962","1,933",Open,7/30/2015,SC,thread
"Truckee-Brockway Rd, CA",The Rock 11209 Brockway Rd,Truckee,CA,Truckee_CA,96161,USA,8,"39.321865, -120.1621","1,801",Open,10/23/2015,SC,thread
"Truckee, CA",11290 Donner Pass Rd,Truckee,CA,Truckee_CA,96161,USA,6,"39.327507, -120.207373","1,967",Open,8/26/2014,SC,thread
"Tucumcari, NM",2624 South Adams St,Tucumcari,NM,Tucumcari_NM,88401,USA,6,"35.153963, -103.722539","1,253",Open,4/21/2015,SC,thread
"Tupelo, MS",1001 Barnes Crossing Road,Tupelo,MS,Tupelo_MS,38804,USA,8,"34.311515, -88.700843",83,Open,5/11/2017,SC,thread
"Twentynine Palms, CA",73829 Baseline Rd,Twentynine Palms,CA,Twentynine Palms_CA,92277,USA,8,"34.12046, -116.050953",631,Open,12/9/2016,SC,thread
"Twin Falls, ID","Twin Falls Tourist Center, 2015 Nielsen Point Place",Twin Falls,ID,Twin Falls_ID,83301,USA,8,"42.598103, -114.456183","1,101",Open,10/28/2015,SC,thread
"Ukiah, CA",310 S State St,Ukiah,CA,Ukiah_CA,95482,USA,8,"39.148694, -123.20787",193,Open,1/13/2016,SC,thread
"Utica, NY",50 Auert Ave,Utica,NY,Utica_NY,13501,USA,8,"43.113878, -75.206857",128,Open,2/11/2015,SC,thread
"Vacaville, CA",321 Nut Tree RD,Vacaville,CA,Vacaville_CA,95687,USA,10,"38.366645, -121.958136",34,Open,12/19/2013,SC,thread
"Van Horn, TX",1921 SW Frontage Rd,Van Horn,TX,Van Horn_TX,79855,USA,8,"31.03448, -104.861431","1,230",Open,2/20/2017,SC,thread
"Victor, NY",7979 Pittsford Victor Rd,Victor,NY,Victor_NY,14564,USA,8,"43.028655, -77.440128",208,Open,6/1/2017,SC,thread
"Victoria, TX",3107 South Laurent St,Victoria,TX,Victoria_TX,77901,USA,6,"28.766853, -96.978988",23,Open,12/30/2015,SC,thread
"Waco, TX",701 Interstate 35,Bellmead,TX,Bellmead_TX,76705,USA,8,"31.58224, -97.10915",124,Open,9/7/2013,SC,forum
"Warsaw, NC",2676 W Nc 24 Hwy,Warsaw,NC,Warsaw_NC,28398,USA,6,"34.994793, -78.135673",47,Open,3/11/2016,SC,thread
"Waterloo, NY",1133 Ridge Road,Waterloo,NY,Waterloo_NY,13165,USA,8,"42.970012, -76.846134",156,Open,3/12/2017,SC,thread
"Watertown, NY",21182 Salmon Run Mall Loop W,Watertown,NY,Watertown_NY,13601,USA,8,"43.979585, -75.954114",156,Open,6/24/2016,SC,forum
"Wausau, WI",1000 S 22nd Ave,Wausau,WI,Wausau_WI,54401,USA,4,"44.950214, -89.6635",356,Open,11/24/2016,SC,thread
"Weatherford, OK",1301 N Airport Rd by Lucille's Roadhouse,Weatherford,OK,Weatherford_OK,73096,USA,6,"35.53859, -98.66012",485,Open,3/11/2015,SC,thread
"West Des Moines, IA",1725 Jordan Creek Parkway,West Des Moines,IA,West Des Moines_IA,50266,USA,8,"41.599019, -93.806336",300,Open,10/21/2016,SC,thread
"West Hartford, CT",1445 New Britain Ave,West Hartford,CT,West Hartford_CT,6110,USA,8,"41.722672, -72.759717",52,Open,12/5/2014,SC,thread
"West Lebanon, NH",285 N Plainfield Rd #1,West Lebanon,NH,West Lebanon_NH,3784,USA,8,"43.624616, -72.324692",104,Open,7/17/2015,SC,thread
"West Springfield, MA",935 Riverdale St,West Springfield,MA,West Springfield_MA,1089,USA,8,"42.130914, -72.621435",17,Open,2/14/2015,SC,thread
"West Wendover, NV",810 Wendover Blvd,West Wendover,NV,West Wendover_NV,89883,USA,6,"40.738399, -114.058998","1,335",Open,1/22/2015,SC,thread
"West Yellowstone, MT",201 S Canyon St,West Yellowstone,MT,West Yellowstone_MT,59758,USA,8,"44.656089, -111.099022","2,034",Open,5/25/2016,SC,thread
"Wichita, KS",4760 S. Broadway St.,Wichita,KS,Wichita_KS,67216,USA,6,"37.60878, -97.33314",388,Open,1/21/2015,SC,thread
"Wickenburg, AZ",155 N Tegner Tt,Wickenburg,AZ,Wickenburg_AZ,85390,USA,6,"33.970233, -112.73165",628,Open,7/11/2014,SC,thread
"Wilmington, NC",1022 International Drive,Wilmington,NC,Wilmington_NC,28405,USA,10,"34.240825, -77.829189",7,Open,5/16/2017,SC,thread
"Winnemucca, NV",1985 W. Winnemucca Blvd,Winnemucca,NV,Winnemucca_NV,89445,USA,4,"40.958847, -117.746497","1,308",Open,2/18/2015,SC,thread
"Woodbridge, VA",2700 Potomac Mills Circle,Woodbridge,VA,Woodbridge_VA,22192,USA,8,"38.64082, -77.29633",63,Open,5/2/2014,SC,thread
"Woodburn, OR",255 N Arney Rd,Woodburn,OR,Woodburn_OR,97071,USA,8,"45.15313, -122.881254",56,Open,8/28/2013,SC,forum
"Woodstock, ON",580 Bruin Boulevard,Woodstock,ON,Woodstock_ON,N4V 1E5,Canada,8,"43.111918, -80.738804",291,Open,12/17/2014,SC,thread
"Worthington, MN",1290 Ryan's Rd,Worthington,MN,Worthington_MN,56187,USA,6,"43.63385, -95.595647",478,Open,12/11/2013,SC,thread
"Wytheville, VA",165 Malin Dr.,Wytheville,VA,Wytheville_VA,,USA,6,"36.945795, -81.054406",683,Open,12/30/2015,SC,thread
"Yermo, CA",36017 Calico Rd,Yermo,CA,Yermo_CA,92398,USA,18,"34.907217, -116.835801",590,Permit,,SC,thread
"Yuma, AZ",310 N Madison Ave,Yuma,AZ,Yuma_AZ,85364,USA,8,"32.726686, -114.619093",43,Open,2/4/2014,SC,thread
